{"type": "FeatureCollection", "features": [{"type": "Feature", "properties": {"norad_id": 25590, "name": "COSMOS 2361", "group": "musson", "lat": -44.59072563456689, "lon": -24.386379048482798, "alt_km": 981.9894153135729, "timestamp": "2025-12-14T16:47:40.953453+00:00", "meta": {"OBJECT_NAME": "COSMOS 2361", "OBJECT_ID": "1998-076A", "EPOCH": "2025-12-13T23:48:55.971072", "MEAN_MOTION": 13.73217634, "ECCENTRICITY": 0.00300643, "INCLINATION": 82.9339, "RA_OF_ASC_NODE": 343.1599, "ARG_OF_PERICENTER": 261.9729, "MEAN_ANOMALY": 157.362, "EPHEMERIS_TYPE": 0, "CLASSIFICATION_TYPE": "U", "NORAD_CAT_ID": 25590, "ELEMENT_SET_NO": 999, "REV_AT_EPOCH": 35128, "BSTAR": 8.4707624e-05, "MEAN_MOTION_DOT": 9.3e-07, "MEAN_MOTION_DDOT": 0}, "tle": {"line1": "1 25590U 98076A   25347.99231448  .00000093  00000+0  84708-4 0  9994", "line2": "2 25590  82.9339 343.1599 0030064 261.9729 157.3620 13.73217634351280"}}, "geometry": {"type": "Point", "coordinates": [-24.386379048482798, -44.59072563456689]}}, {"type": "Feature", "properties": {"norad_id": 26818, "name": "COSMOS 2378", "group": "musson", "lat": 33.45102399693983, "lon": 2.9764093792055304, "alt_km": 1005.7604344595002, "timestamp": "2025-12-14T16:47:40.953475+00:00", "meta": {"OBJECT_NAME": "COSMOS 2378", "OBJECT_ID": "2001-023A", "EPOCH": "2025-12-13T23:27:39.004992", "MEAN_MOTION": 13.74142091, "ECCENTRICITY": 0.0032476, "INCLINATION": 82.9272, "RA_OF_ASC_NODE": 358.807, "ARG_OF_PERICENTER": 201.4025, "MEAN_ANOMALY": 221.6535, "EPHEMERIS_TYPE": 0, "CLASSIFICATION_TYPE": "U", "NORAD_CAT_ID": 26818, "ELEMENT_SET_NO": 999, "REV_AT_EPOCH": 22940, "BSTAR": 6.0761342e-05, "MEAN_MOTION_DOT": 7.2e-07, "MEAN_MOTION_DDOT": 0}, "tle": {"line1": "1 26818U 01023A   25347.97753478  .00000072  00000+0  60761-4 0  9994", "line2": "2 26818  82.9272 358.8070 0032476 201.4025 221.6535 13.74142091229407"}}, "geometry": {"type": "Point", "coordinates": [2.9764093792055304, 33.45102399693983]}}, {"type": "Feature", "properties": {"norad_id": 27436, "name": "COSMOS 2389", "group": "musson", "lat": -66.86149889452757, "lon": 142.36550326417128, "alt_km": 1022.5630555813013, "timestamp": "2025-12-14T16:47:40.953489+00:00", "meta": {"OBJECT_NAME": "COSMOS 2389", "OBJECT_ID": "2002-026A", "EPOCH": "2025-12-14T00:12:40.705344", "MEAN_MOTION": 13.75154781, "ECCENTRICITY": 0.00475792, "INCLINATION": 82.9504, "RA_OF_ASC_NODE": 306.0451, "ARG_OF_PERICENTER": 57.295, "MEAN_ANOMALY": 11.8991, "EPHEMERIS_TYPE": 0, "CLASSIFICATION_TYPE": "U", "NORAD_CAT_ID": 27436, "ELEMENT_SET_NO": 999, "REV_AT_EPOCH": 18166, "BSTAR": 7.1890862e-05, "MEAN_MOTION_DOT": 8.5e-07, "MEAN_MOTION_DDOT": 0}, "tle": {"line1": "1 27436U 02026A   25348.00880446  .00000085  00000+0  71891-4 0  9996", "line2": "2 27436  82.9504 306.0451 0047579  57.2950  11.8991 13.75154781181664"}}, "geometry": {"type": "Point", "coordinates": [142.36550326417128, -66.86149889452757]}}, {"type": "Feature", "properties": {"norad_id": 27818, "name": "COSMOS 2398", "group": "musson", "lat": -1.6008355977325774, "lon": 91.45222715524073, "alt_km": 987.842344386936, "timestamp": "2025-12-14T16:47:40.953501+00:00", "meta": {"OBJECT_NAME": "COSMOS 2398", "OBJECT_ID": "2003-023A", "EPOCH": "2025-12-13T20:57:39.333024", "MEAN_MOTION": 13.72385861, "ECCENTRICITY": 0.00326139, "INCLINATION": 82.9485, "RA_OF_ASC_NODE": 271.8629, "ARG_OF_PERICENTER": 108.7507, "MEAN_ANOMALY": 311.7407, "EPHEMERIS_TYPE": 0, "CLASSIFICATION_TYPE": "U", "NORAD_CAT_ID": 27818, "ELEMENT_SET_NO": 999, "REV_AT_EPOCH": 12832, "BSTAR": 6.0595822e-05, "MEAN_MOTION_DOT": 7.1e-07, "MEAN_MOTION_DDOT": 0}, "tle": {"line1": "1 27818U 03023A   25347.87337191  .00000071  00000+0  60596-4 0  9991", "line2": "2 27818  82.9485 271.8629 0032613 108.7507 311.7407 13.72385861128325"}}, "geometry": {"type": "Point", "coordinates": [91.45222715524073, -1.6008355977325774]}}, {"type": "Feature", "properties": {"norad_id": 28380, "name": "COSMOS 2407", "group": "musson", "lat": 44.00488956385652, "lon": -141.70450542669113, "alt_km": 943.7226577092279, "timestamp": "2025-12-14T16:47:40.953511+00:00", "meta": {"OBJECT_NAME": "COSMOS 2407", "OBJECT_ID": "2004-028A", "EPOCH": "2025-12-13T23:41:28.195296", "MEAN_MOTION": 13.76313816, "ECCENTRICITY": 0.00402908, "INCLINATION": 82.9606, "RA_OF_ASC_NODE": 211.9692, "ARG_OF_PERICENTER": 51.4581, "MEAN_ANOMALY": 64.1027, "EPHEMERIS_TYPE": 0, "CLASSIFICATION_TYPE": "U", "NORAD_CAT_ID": 28380, "ELEMENT_SET_NO": 999, "REV_AT_EPOCH": 7440, "BSTAR": 6.9765211e-05, "MEAN_MOTION_DOT": 8.4e-07, "MEAN_MOTION_DDOT": 0}, "tle": {"line1": "1 28380U 04028A   25347.98713189  .00000084  00000+0  69765-4 0  9990", "line2": "2 28380  82.9606 211.9692 0040290  51.4581  64.1027 13.76313816 74407"}}, "geometry": {"type": "Point", "coordinates": [-141.70450542669113, 44.00488956385652]}}, {"type": "Feature", "properties": {"norad_id": 28521, "name": "COSMOS 2414", "group": "musson", "lat": 28.8697664954699, "lon": -172.90954018263054, "alt_km": 942.2020800056898, "timestamp": "2025-12-14T16:47:40.953523+00:00", "meta": {"OBJECT_NAME": "COSMOS 2414", "OBJECT_ID": "2005-002A", "EPOCH": "2025-12-13T23:21:07.664832", "MEAN_MOTION": 13.87903085, "ECCENTRICITY": 0.00409627, "INCLINATION": 82.949, "RA_OF_ASC_NODE": 183.7274, "ARG_OF_PERICENTER": 136.2149, "MEAN_ANOMALY": 224.2275, "EPHEMERIS_TYPE": 0, "CLASSIFICATION_TYPE": "U", "NORAD_CAT_ID": 28521, "ELEMENT_SET_NO": 999, "REV_AT_EPOCH": 5812, "BSTAR": 7.7347599e-05, "MEAN_MOTION_DOT": 1.09e-06, "MEAN_MOTION_DDOT": 0}, "tle": {"line1": "1 28521U 05002A   25347.97300538  .00000109  00000+0  77348-4 0  9993", "line2": "2 28521  82.9490 183.7274 0040962 136.2149 224.2275 13.87903085 58125"}}, "geometry": {"type": "Point", "coordinates": [-172.90954018263054, 28.8697664954699]}}, {"type": "Feature", "properties": {"norad_id": 32052, "name": "COSMOS 2429", "group": "musson", "lat": 72.61851347435511, "lon": 5.042556460184543, "alt_km": 952.5761934807706, "timestamp": "2025-12-14T16:47:40.953533+00:00", "meta": {"OBJECT_NAME": "COSMOS 2429", "OBJECT_ID": "2007-038A", "EPOCH": "2025-12-13T22:58:33.808800", "MEAN_MOTION": 13.75149498, "ECCENTRICITY": 0.00391741, "INCLINATION": 82.9804, "RA_OF_ASC_NODE": 342.411, "ARG_OF_PERICENTER": 34.5398, "MEAN_ANOMALY": 325.8292, "EPHEMERIS_TYPE": 0, "CLASSIFICATION_TYPE": "U", "NORAD_CAT_ID": 32052, "ELEMENT_SET_NO": 999, "REV_AT_EPOCH": 91619, "BSTAR": 7.8247183e-05, "MEAN_MOTION_DOT": 9.1e-07, "MEAN_MOTION_DDOT": 0}, "tle": {"line1": "1 32052U 07038A   25347.95733575  .00000091  00000+0  78247-4 0  9996", "line2": "2 32052  82.9804 342.4110 0039174  34.5398 325.8292 13.75149498916194"}}, "geometry": {"type": "Point", "coordinates": [5.042556460184543, 72.61851347435511]}}, {"type": "Feature", "properties": {"norad_id": 35635, "name": "COSMOS 2454", "group": "musson", "lat": 81.77509936484469, "lon": -71.65148199153687, "alt_km": 908.0211158146585, "timestamp": "2025-12-14T16:47:40.953543+00:00", "meta": {"OBJECT_NAME": "COSMOS 2454", "OBJECT_ID": "2009-039A", "EPOCH": "2025-12-13T23:36:00.076608", "MEAN_MOTION": 13.89928849, "ECCENTRICITY": 0.0020413, "INCLINATION": 82.9553, "RA_OF_ASC_NODE": 167.7022, "ARG_OF_PERICENTER": 70.4033, "MEAN_ANOMALY": 40.8769, "EPHEMERIS_TYPE": 0, "CLASSIFICATION_TYPE": "U", "NORAD_CAT_ID": 35635, "ELEMENT_SET_NO": 999, "REV_AT_EPOCH": 83167, "BSTAR": 7.8969622e-05, "MEAN_MOTION_DOT": 1.13e-06, "MEAN_MOTION_DDOT": 0}, "tle": {"line1": "1 35635U 09039A   25347.98333422  .00000113  00000+0  78970-4 0  9997", "line2": "2 35635  82.9553 167.7022 0020413  70.4033  40.8769 13.89928849831678"}}, "geometry": {"type": "Point", "coordinates": [-71.65148199153687, 81.77509936484469]}}, {"type": "Feature", "properties": {"norad_id": 36519, "name": "COSMOS 2463", "group": "musson", "lat": 5.80179353166704, "lon": 25.99190262466132, "alt_km": 992.7479879765942, "timestamp": "2025-12-14T16:47:40.953554+00:00", "meta": {"OBJECT_NAME": "COSMOS 2463", "OBJECT_ID": "2010-017A", "EPOCH": "2025-12-13T20:36:22.276224", "MEAN_MOTION": 13.71649225, "ECCENTRICITY": 0.00347828, "INCLINATION": 82.9612, "RA_OF_ASC_NODE": 25.8905, "ARG_OF_PERICENTER": 284.8494, "MEAN_ANOMALY": 249.3134, "EPHEMERIS_TYPE": 0, "CLASSIFICATION_TYPE": "U", "NORAD_CAT_ID": 36519, "ELEMENT_SET_NO": 999, "REV_AT_EPOCH": 78252, "BSTAR": 5.027849e-05, "MEAN_MOTION_DOT": 6e-07, "MEAN_MOTION_DDOT": 0}, "tle": {"line1": "1 36519U 10017A   25347.85859116  .00000060  00000+0  50278-4 0  9998", "line2": "2 36519  82.9612  25.8905 0034782 284.8494 249.3134 13.71649225782526"}}, "geometry": {"type": "Point", "coordinates": [25.99190262466132, 5.80179353166704]}}]}